DELTA 2 R/B(1)          
1 20453U 90008B   26128.72702149  .00059181  00000+0  53633-3 0  9998
2 20453  35.6005 138.5053 0070581 103.5802 257.2810 15.63631889935518
COSMOS 2058             
1 20465U 90010A   26128.88817482  .00003240  00000+0  18797-3 0  9995
2 20465  82.4681 348.1097 0011197 120.7655 239.4679 15.11782348951336
SL-14 R/B               
1 20466U 90010B   26128.51101492  .00000323  00000+0  36070-4 0  9997
2 20466  82.5044 211.2010 0021346 102.1122 258.2487 14.83622351937353
SL-14 R/B               
1 20511U 90018B   26128.85624012  .00000253  00000+0  28830-4 0  9998
2 20511  82.5213 166.8707 0014756 252.1586 107.8019 14.82192361931498
HST                     
1 20580U 90037B   26128.82445621  .00006179  00000+0  19697-3 0  9992
2 20580  28.4761 349.5058 0002174  66.1998 293.8826 15.30329703782538
SL-16 R/B               
1 20625U 90046B   26128.85580638  .00000139  00000+0  96357-4 0  9992
2 20625  70.9984 171.5522 0015575 220.1454 139.8519 14.15022721856907
COSMOS 2084             
1 20663U 90055A   26128.35555417  .00001491  00000+0  11573-3 0  9994
2 20663  62.7873 132.0230 0007995 220.0286 140.0226 15.05953949945309
SL-6 R/B(2)             
1 20666U 90055D   26128.95291357  .00001601  00000+0  12903-3 0  9994
2 20666  62.7840  48.8703 0034432 359.2238   0.8801 15.03864442947258
SL-8 R/B                
1 20775U 90078B   26128.48144637  .00020847  00000+0  60005-3 0  9995
2 20775  82.9039 197.4747 0355179 172.0620 188.6442 14.90986654818205
SL-8 R/B                
1 21088U 91006B   26128.71747730 -.00000002  00000+0 -16970-4 0  9990
2 21088  82.9393 125.3986 0021368 224.5059 310.1731 13.77506019772333
OKEAN-3                 
1 21397U 91039A   26128.91721277  .00002101  00000+0  14521-3 0  9998
2 21397  82.5154 278.4584 0015549 123.7942 236.4768 15.05139953874094
COSMOS 2151             
1 21422U 91042A   26128.97846028  .00001302  00000+0  10160-3 0  9996
2 21422  82.4987  25.5148 0011317 209.4521 150.6067 15.00335255872238
SL-14 R/B               
1 21423U 91042B   26128.51696505  .00000264  00000+0  30352-4 0  9992
2 21423  82.4927 164.0979 0018142  48.3654 311.9110 14.81877875861937
ERS-1                   
1 21574U 91050A   26128.96231014  .00000230  00000+0  88059-4 0  9997
2 21574  98.7822 148.6986 0032373  25.5752 334.7028 14.39492565824406
ARIANE 40 R/B           
1 21610U 91050F   26128.38467049  .00000221  00000+0  78520-4 0  9995
2 21610  98.1906 178.3459 0001920 237.7177 122.3828 14.42933334827603
INTERCOSMOS 25          
1 21819U 91086A   26128.90962919  .00000244  00000+0  45643-4 0  9994
2 21819  82.6013 273.5795 1485449 347.1308   9.5402 12.12149242503985
SL-8 R/B                
1 21876U 92008B   26128.55761646  .00000067  00000+0  53066-4 0  9998
2 21876  82.9288 223.2485 0033761 329.3587  40.8765 13.75972210717659
SL-8 R/B                
1 21938U 92020B   26128.91969422 -.00000020  00000+0 -36273-4 0  9995
2 21938  82.9274 109.0244 0030124 127.8250 290.2996 13.75547437709416
USA 81                  
1 21949U 92023A   26128.94561457  .00000167  00000+0  54456-4 0  9992
2 21949  85.0048  96.6548 0001826 111.5979 248.5408 14.32386813103419
COSMOS 2219             
1 22219U 92076A   26128.78977076  .00000046  00000+0  48854-4 0  9992
2 22219  71.0615 252.4286 0015959 110.4383 249.8455 14.14103389726877
SL-16 R/B               
1 22220U 92076B   26128.91821384  .00000130  00000+0  88528-4 0  9995
2 22220  71.0009  61.5020 0012908 353.0358  69.4384 14.16869484730362
COSMOS 2221             
1 22236U 92080A   26128.35421183  .00001326  00000+0  11446-3 0  9990
2 22236  82.5055 221.9198 0013927 358.5101   1.6077 14.96432855789719
SL-16 R/B               
1 22285U 92093B   26128.52618148 -.00000161  00000+0 -58038-4 0  9993
2 22285  71.0224 238.6491 0005990 235.1451 124.9110 14.15461450721621
COSMOS 2228             
1 22286U 92094A   26128.86490111  .00001335  00000+0  11197-3 0  9996
2 22286  82.5188 179.7027 0019536  99.3332 261.0101 14.97456127785063
SL-16 R/B               
1 22566U 93016B   26128.92610469  .00000080  00000+0  65361-4 0  9998
2 22566  71.0049  88.6674 0012110 237.7631 122.2319 14.15307706710694
COSMOS 2242             
1 22626U 93024A   26128.94044043  .00001349  00000+0  11524-3 0  9995
2 22626  82.5207 209.0834 0017797 102.3640 257.9576 14.96792444789406
SL-16 R/B               
1 22803U 93059B   26128.89421842 -.00000185  00000+0 -67969-4 0  9994
2 22803  70.9906 244.1634 0015168 122.7625 237.4963 14.17242394688067
ARIANE 40 R/B           
1 22830U 93061H   26128.89187448  .00000150  00000+0  70440-4 0  9996
2 22830  98.4833 196.5618 0011949 105.2466 255.0041 14.32890710702726
COSMOS 2278             
1 23087U 94023A   26128.92484955 -.00000178  00000+0 -68362-4 0  9999
2 23087  71.0552  49.0725 0011135 291.1712  68.8220 14.14388715653320
SL-16 R/B               
1 23088U 94023B   26128.94422554  .00000254  00000+0  15561-3 0  9994
2 23088  70.9998 304.3462 0004635 229.5040 130.5679 14.15021165654616
SL-16 R/B               
1 23343U 94074B   26128.87391128  .00000325  00000+0  50092-4 0  9996
2 23343  97.7020 157.2282 0007368  36.5146 136.8106 14.79468779696141
SL-16 R/B               
1 23405U 94077B   26128.54898912 -.00000234  00000+0 -95152-4 0  9992
2 23405  70.9831 226.5526 0000712  12.0159 348.0980 14.15570016624701
ARIANE 40+ R/B          
1 23561U 95021B   26128.95197307  .00000206  00000+0  79446-4 0  9995
2 23561  98.4420 199.5908 0005914 330.6447 206.1257 14.39811505627918
SL-16 R/B               
1 23705U 95058B   26128.91222726  .00000052  00000+0  51057-4 0  9992
2 23705  71.0220  53.8171 0011653  18.4675 341.6869 14.15502077576370
SL-16 R/B               
1 24298U 96051B   26128.93873734  .00000117  00000+0  90177-4 0  9995
2 24298  70.7628  47.7156 0012748  41.9348 318.2746 14.12432138530152
ORBVIEW 2 (SEASTAR)     
1 24883U 97037A   26128.91841234  .00000212  00000+0  90030-4 0  9992
2 24883  98.8658 294.8562 0001363 218.0985 142.0103 14.35533037517113
SL-16 R/B               
1 25400U 98043G   26128.86133484  .00000041  00000+0  36037-4 0  9998
2 25400  98.8340  82.6884 0009471 194.1699 165.9216 14.26062248447562
SL-16 R/B               
1 25407U 98045B   26128.89359112  .00000236  00000+0  14315-3 0  9998
2 25407  71.0124  54.9645 0009528 288.0222  71.9863 14.16200658435623
ISS (ZARYA)             
1 25544U 98067A   26128.77995169  .00007005  00000+0  13445-3 0  9993
2 25544  51.6310 135.1683 0007382  37.9322 322.2185 15.49151526565649
CZ-4B R/B               
1 25732U 99025C   26128.57291144  .00000023  00000+0  31680-4 0  9992
2 25732  98.6517 171.4020 0037338 170.9044 311.9959 14.18276552396658
OKEAN-O                 
1 25860U 99039A   26128.87583656  .00000473  00000+0  68683-4 0  9996
2 25860  97.9340 188.1204 0001838 105.5848 254.5567 14.80419825443298
SL-16 R/B               
1 25861U 99039B   26128.39413333  .00000405  00000+0  58051-4 0  9991
2 25861  97.9864 187.3658 0016043  66.2626 294.0267 14.81805098445701
DELTA 2 R/B             
1 25876U 99041E   26128.82228751  .00000502  00000+0  11976-3 0  9998
2 25876  51.7625  61.0479 0502146 165.7547 195.8157 14.11949204371525
HELIOS 1B               
1 25977U 99064A   26128.97332358  .00001119  00000+0  12864-3 0  9992
2 25977  98.1642  32.9759 0000974 135.1432 224.9862 14.87901700694229
TERRA                   
1 25994U 99068A   26128.93488855  .00000303  00000+0  70757-4 0  9995
2 25994  97.9485 180.0317 0002431  28.3884 144.4973 14.61071673403876
SL-16 R/B               
1 26070U 00006B   26128.92464182 -.00000204  00000+0 -79423-4 0  9992
2 26070  71.0031 331.1835 0014236  89.6964 270.5791 14.15834208357081
TITAN 4B R/B            
1 26474U 00047B   26128.84902259  .00002122  00000+0  13594-3 0  9993
2 26474  67.9888 231.2798 0043703 327.7351  32.1126 15.09992991401990
ENVISAT                 
1 27386U 02009A   26128.88655844  .00000077  00000+0  38887-4 0  9995
2 27386  98.3811  81.0875 0001170  90.8334 285.9000 14.39055449267837
IDEFIX & ARIANE 42P R/B 
1 27422U 02021B   26128.83589354  .00000201  00000+0  93005-4 0  9999
2 27422  98.5929  66.7494 0012211  16.2237 343.9335 14.31063117252629
AQUA                    
1 27424U 02022A   26128.90921698  .00000683  00000+0  14580-3 0  9995
2 27424  98.4256  97.4154 0002128  82.0631 335.4361 14.62097387277534
CZ-4B R/B               
1 27432U 02024C   26128.93489738  .00000030  00000+0  38276-4 0  9998
2 27432  98.8728 182.0033 0049627 210.7989 322.2253 14.14557902237754
MIDORI II (ADEOS-II)    
1 27597U 02056A   26128.86684653  .00000235  00000+0  11019-3 0  9992
2 27597  98.7855  87.7992 0001427 129.6389 230.4918 14.29327230218896
H-2A R/B                
1 27601U 02056E   26128.92922843  .00000250  00000+0  10215-3 0  9995
2 27601  98.3290  87.0404 0069871 343.2317  60.7302 14.33802888222746
CZ-4B R/B               
1 28059U 03049C   26128.96685811  .00000318  00000+0  84447-4 0  9995
2 28059  98.6898 126.2546 0049049  48.7378 311.8027 14.55071611195360
CZ-2C R/B               
1 28222U 04012C   26128.65035765  .00070365  00000+0  52659-3 0  9999
2 28222  97.7107 199.9411 0011940  92.6901 267.5728 15.72368447213678
SL-16 R/B               
1 28353U 04021B   26128.91613345  .00000036  00000+0  43439-4 0  9994
2 28353  70.9979 106.1033 0006842 295.6745  64.3671 14.14601730131353
CZ-4B R/B               
1 28415U 04035C   26128.57251700  .00006918  00000+0  23679-3 0  9991
2 28415  97.3401 162.1052 0033109 115.0081 245.4604 15.30021320189061
CZ-2C R/B               
1 28480U 04046B   26128.50570860  .00000123  00000+0  61109-4 0  9992
2 28480  98.1964  39.7609 0138979 338.5085  21.0297 14.27015608117031
ARIANE 5 R/B            
1 28499U 04049H   26128.92553079  .00000892  00000+0  10422-3 0  9998
2 28499  98.2701 299.6696 0084585 155.1038 205.4293 14.85384246154731
